[
    {
        "Altitude(m)": 622205.8880208525,
        "Argument of Periapsis(deg)": 0.0,
        "Eccentricity": 0.0,
        "Inclination(deg)": 60.0,
        "Latitude(deg)": -52.16249207811517,
        "Longitude(deg)": -27.299477011393204,
        "Mean Anomaly(deg)": -114.54549999999999,
        "RAAN(deg)": 205.0,
        "Satellite Name": "Test1 917",
        "Satellite Number": 917,
        "Semi-Major Axis(m)": 6980739.136638005,
        "Time(s)": 0
    },
    {
        "Altitude(m)": 622344.793999797,
        "Argument of Periapsis(deg)": 0.00010418945913296404,
        "Eccentricity": 0.0,
        "Inclination(deg)": 60.0,
        "Latitude(deg)": -52.520070295668454,
        "Longitude(deg)": -26.518261985739795,
        "Mean Anomaly(deg)": -113.92539385453814,
        "RAAN(deg)": 204.99957995086024,
        "Satellite Name": "Test1 917",
        "Satellite Number": 917,
        "Semi-Major Axis(m)": 6980739.136638005,
        "Time(s)": 10
    }
]